0 SL-8 DEB
1 29282U 81120L   13287.79184152  .00000061  00000-0  61699-3 0  8825
2 29282 082.9550 100.2215 0018793 188.5207 232.7823 12.03808176483653
0 SL-8 DEB
1 29282U 81120L   13290.78390170  .00000027  00000-0  21378-3 0  8830
2 29282 082.9558 098.5987 0018870 182.6287 239.2730 12.03808954484019
0 SL-8 DEB
1 29282U 81120L   13293.20799950  .00000027  00000-0  20950-3 0  8845
2 29282 082.9561 097.2837 0018993 177.3237 304.9610 12.03809218484308
0 SL-8 DEB
1 29282U 81120L   13295.77066096  .00000013  00000-0  45323-4 0  8855
2 29282 082.9565 095.8941 0019037 172.2554 250.6244 12.03809474484616
